#aV2008  7 15  0  0   .00000000      96 DD+AD WGS84 FIT  NGA
## 1488 172800.00000000   900.00000000 54662  .0000000000000
+   31     2  3  4  5  6  7  8  9 10 11 12 13 14 15 16 17 18
+         19 20 21 22 23 24 25 26 27 28 29 30 31 32  0  0  0
+          0  0  0  0  0  0  0  0  0  0  0  0  0  0  0  0  0
+          0  0  0  0  0  0  0  0  0  0  0  0  0  0  0  0  0
+          0  0  0  0  0  0  0  0  0  0  0  0  0  0  0  0  0
++         0  0  0  0  0  0  0  0  0  0  0  0  0  0  0  0  0
++         0  0  0  0  0  0  0  0  0  0  0  0  0  0  0  0  0
++         0  0  0  0  0  0  0  0  0  0  0  0  0  0  0  0  0
++         0  0  0  0  0  0  0  0  0  0  0  0  0  0  0  0  0
++         0  0  0  0  0  0  0  0  0  0  0  0  0  0  0  0  0
%c cc cc ccc ccc cccc cccc cccc cccc ccccc ccccc ccccc ccccc
%c cc cc ccc ccc cccc cccc cccc cccc ccccc ccccc ccccc ccccc
%f  0.0000000  0.000000000  0.00000000000  0.000000000000000
%f  0.0000000  0.000000000  0.00000000000  0.000000000000000
%i    0    0    0    0      0      0      0      0         0
%i    0    0    0    0      0      0      0      0         0
/*      NGA, ST. LOUIS,MO.                                  
/*   EPHEMERIS COMPUTED FROM  3 DAYS OF DATA                
/* CCCCCCCCCCCCCCCCCCCCCCCCCCCCCCCCCCCCCCCCCCCCCCCCCCCCCCCCC
/* CCCCCCCCCCCCCCCCCCCCCCCCCCCCCCCCCCCCCCCCCCCCCCCCCCCCCCCCC
*  2008  7 15 12 30   .00000000                                                 
P  2  15842.954538   1783.925851 -21353.252481    201.782646                    
V  2  -8562.847858  25490.093878  -4613.961336      -.024683                    
P  3 -21669.780655  -6545.502174  13905.573695    255.935762                    
V  3 -10964.347510 -14614.310569 -23164.066099       .052738                    
P  4  10975.047323  12921.224274 -20461.409368   -116.039652                    
V  4 -10421.893098  23760.704000   9824.635321      -.098109                    
P  5  16352.879171 -15220.729496 -14534.211243   -353.070309                    
V  5  18123.187972  -2194.564220  23275.100528       .223725                    
P  6 -21346.879582 -11136.769902  11389.905264    160.967963                    
V  6  -7219.048930 -12652.371493 -26367.296329       .036147                    
P  7  -6754.722059  25373.668019   3670.381304     -4.058304                    
V  7  -4257.529250   3434.431168 -31400.347957       .055496                    
P  8   1579.562192  21493.155236  15109.026994   -161.861596                    
V  8  -9481.504007  17119.475920 -23697.933214      -.015859                    
P  9  14035.819225 -19518.498831  10484.544323      5.420420                    
V  9  -2201.641922  14345.371621  28104.778634       .018106                    
P 10  26278.399677   -187.841029  -5055.672825     -2.885400                    
V 10  -5790.502400   3225.361305 -30743.077318      -.003198                    
P 11 -11602.148758  21517.118196   9817.927751     23.323126                    
V 11  -2518.296785 -13549.049247  26636.232574      -.005945                    
P 12  20916.512675 -11504.613867 -11452.082207   -356.972673                    
V 12  14895.101911    -38.239460  27139.963474       .007541                    
P 13   2104.768046  20758.160305 -16562.284198    263.888580                    
V 13 -13297.214762 -15938.709432 -21813.436195       .014619                    
P 14 -15373.308811 -21672.058855   1720.316324   -243.902996                    
V 14   2689.753707    506.494743  32199.341361       .044129                    
P 15  16813.948383  -2404.869494  20442.480466   -143.165331                    
V 15  15989.118089  20424.800446 -10748.234030      -.063386                    
P 16 -24490.453435  -3302.900603  -9940.023633    116.888177                    
V 16  12182.226965  -4048.499445 -28273.478099      -.017112                    
P 17  16039.552400  21254.717591   1173.809532     38.629395                    
V 17  -3019.027320    591.476065  31567.165240       .001100                    
P 18   2049.802130 -15793.236156  21404.059718   -156.157394                    
V 18  26690.338142  -2854.400754  -5070.735087       .043148                    
P 19 -16437.495516   2277.037454  20862.520467     33.553210                    
V 19 -14670.115396 -21801.869819  -9022.484239       .004889                    
P 20 -19517.601138  12904.758298 -12645.174202    109.874796                    
V 20 -16135.900045    328.875983  25508.966756      -.008509                    
P 21   2598.400481 -24546.620595   9136.558575     57.946972                    
V 21   7754.634098  -9345.602863 -28539.794237      -.012951                    
P 22 -12829.865228 -12705.455701  19654.628977    211.510246                    
V 22  24299.358985  -4374.634106  13078.061810      -.001442                    
P 23  -8192.614584  13242.170953 -21550.360473    364.437013                    
V 23 -17702.191596 -20674.341244  -6243.904421       .018247                    
P 24  13025.750771 -22944.058821  -3989.417892    109.627890                    
V 24    510.170630   5926.747787 -30850.581483       .028416                    
P 25  -9089.167645  24776.489174  -3396.154525   -190.686978                    
V 25  -1217.489511  -5222.520067 -31353.668357      -.114612                    
P 26  18121.246729   3788.429227  18760.033864    292.811211                    
V 26  14137.122307  20155.757764 -16760.780608       .068239                    
P 27  -3005.943100  25606.383706   6754.109486    202.950671                    
V 27  -4563.672085   6673.418481 -30504.092068       .027333                    
P 28  11437.449864  12886.058525  20688.201690    -21.049691                    
V 28 -24959.241489   4207.521119  11065.150504      -.004234                    
P 29    757.297215 -19401.774882 -18018.086694    -41.541287                    
V 29  15600.876323  17128.498765 -17640.359197       .004964                    
P 30   8089.778810 -16160.292515 -19780.223870     86.040391                    
V 30  24185.958378  -3730.023057  13269.546161       .019571                    
P 31 -11269.157252 -11244.904926 -21041.860372    -24.842232                    
V 31  10106.746176 -25244.465496   8107.714721       .003571                    
P 32 -24841.880129   6301.472261  -6185.008942    307.134417                    
V 32  -8640.537825  -1978.346361  30729.415611       .029301                    
EOF
